0 FENGYUN 1C DEB
1 31741U 99025CEQ 13281.46258655  .00001427  00000-0  60676-3 0  4769
2 31741 099.0596 004.0568 0213906 156.5609 204.5559 14.15291315329277
0 FENGYUN 1C DEB
1 31741U 99025CEQ 13284.43187211  .00001490  00000-0  63220-3 0  4777
2 31741 099.0611 007.0753 0214066 148.0628 213.3761 14.15301548329698
0 FENGYUN 1C DEB
1 31741U 99025CEQ 13287.04764660  .00001544  00000-0  65343-3 0  4785
2 31741 099.0611 009.7350 0214637 140.5890 221.1194 14.15311180330065
0 FENGYUN 1C DEB
1 31741U 99025CEQ 13288.46157059  .00001552  00000-0  65669-3 0  4791
2 31741 099.0601 011.1722 0214755 136.6662 225.1681 14.15315867330261
0 FENGYUN 1C DEB
1 31741U 99025CEQ 13290.44104994  .00001719  00000-0  73015-3 0  4803
2 31741 099.0533 013.1730 0211253 130.7072 231.3296 14.15327147330542
0 FENGYUN 1C DEB
1 31741U 99025CEQ 13292.06702343  .00001779  00000-0  75292-3 0  4811
2 31741 099.0544 014.8278 0212481 125.9899 236.1236 14.15334482330778
0 FENGYUN 1C DEB
1 31741U 99025CEQ 13293.05674964  .00001798  00000-0  75808-3 0  4823
2 31741 099.0570 015.8339 0214201 123.7336 238.4784 14.15338520330916
0 FENGYUN 1C DEB
1 31741U 99025CEQ 13295.03618322  .00001880  00000-0  78914-3 0  4833
2 31741 099.0597 017.8516 0215665 118.3460 243.9950 14.15347909331195
